[{"OBJECT_NAME":"STARLINK-1775","OBJECT_ID":"2020-073M","EPOCH":"2026-03-10T00:00:02.999808","MEAN_MOTION":15.77531204,"ECCENTRICITY":7.989e-5,"INCLINATION":53.0433,"RA_OF_ASC_NODE":208.9003,"ARG_OF_PERICENTER":71.2079,"MEAN_ANOMALY":262.2455,"EPHEMERIS_TYPE":0,"CLASSIFICATION_TYPE":"U","NORAD_CAT_ID":46681,"ELEMENT_SET_NO":999,"REV_AT_EPOCH":597,"BSTAR":0.00064069936,"MEAN_MOTION_DOT":0.00109421,"MEAN_MOTION_DDOT":0},{"OBJECT_NAME":"STARLINK-36358","OBJECT_ID":"2026-018K","EPOCH":"2026-03-09T16:09:51.568128","MEAN_MOTION":15.75270125,"ECCENTRICITY":0.00024627,"INCLINATION":97.2851,"RA_OF_ASC_NODE":134.4581,"ARG_OF_PERICENTER":35.3205,"MEAN_ANOMALY":324.8223,"EPHEMERIS_TYPE":0,"CLASSIFICATION_TYPE":"U","NORAD_CAT_ID":67598,"ELEMENT_SET_NO":999,"REV_AT_EPOCH":730,"BSTAR":0.0016987698,"MEAN_MOTION_DOT":0.002621,"MEAN_MOTION_DDOT":0}]
